H1 CPF 01  gfz 2021 07 01 12  6822 tandemx   
H2 1003001  6202 36605    2021 07 01 12 59 42 2021 07 06 00 00 42   120 1 1  0 0 0
H9
10 0 59397  76302.000000  0     -25317.193  -1282232.995   6756987.631
10 0 59397  76422.000000  0    -650915.746   -609948.002   6819367.711
10 0 59397  76542.000000  0   -1253203.336     83724.615   6761917.403
10 0 59397  76662.000000  0   -1821406.727    786178.894   6585638.561
10 0 59397  76782.000000  0   -2345565.945   1484471.457   6293608.075
10 0 59397  76902.000000  0   -2816709.454   2165559.107   5890927.509
10 0 59397  77022.000000  0   -3227009.344   2816542.571   5384639.882
10 0 59397  77142.000000  0   -3569914.951   3424912.743   4783612.856
10 0 59397  77262.000000  0   -3840261.854   3978794.152   4098389.057
10 0 59397  77382.000000  0   -4034353.518   4467181.875   3341005.465
10 0 59397  77502.000000  0   -4150013.823   4880166.382   2524783.470
10 0 59397  77622.000000  0   -4186608.282   5209139.847   1664092.261
10 0 59397  77742.000000  0   -4145033.708   5446979.012    774091.845
10 0 59397  77862.000000  0   -4027677.606   5588200.799   -129539.858
10 0 59397  77982.000000  0   -3838346.840   5629086.949  -1030892.366
10 0 59397  78102.000000  0   -3582166.053   5567771.757  -1914113.532
10 0 59397  78222.000000  0   -3265449.247   5404291.008  -2763696.955
10 0 59397  78342.000000  0   -2895548.419   5140593.394  -3564759.647
10 0 59397  78462.000000  0   -2480684.986   4780512.184  -4303304.950
10 0 59397  78582.000000  0   -2029767.249   4329700.406  -4966464.727
10 0 59397  78702.000000  0   -1552199.478   3795532.897  -5542716.356
10 0 59397  78822.000000  0   -1057687.142   3186978.003  -6022074.962
10 0 59397  78942.000000  0    -556041.014   2514439.434  -6396256.911
10 0 59397  79062.000000  0     -56984.917   1789573.456  -6658810.853
10 0 59397  79182.000000  0     430028.204   1025086.201  -6805218.040
10 0 59397  79302.000000  0     895990.687    234513.347  -6832962.395
10 0 59397  79422.000000  0    1332503.103   -568015.273  -6741569.079
10 0 59397  79542.000000  0    1731921.487  -1368022.702  -6532610.170
10 0 59397  79662.000000  0    2087487.903  -2150938.697  -6209680.392
10 0 59397  79782.000000  0    2393443.711  -2902358.471  -5778342.630
10 0 59397  79902.000000  0    2645123.408  -3608304.835  -5246043.807
10 0 59397  80022.000000  0    2839027.939  -4255489.703  -4621996.483
10 0 59397  80142.000000  0    2972873.994  -4831565.377  -3917028.736
10 0 59397  80262.000000  0    3045619.968  -5325364.617  -3143407.587
10 0 59397  80382.000000  0    3057467.741  -5727126.395  -2314633.522
10 0 59397  80502.000000  0    3009839.282  -6028698.036  -1445208.214
10 0 59397  80622.000000  0    2905328.420  -6223710.082   -550380.482
10 0 59397  80742.000000  0    2747627.034  -6307718.219    354126.308
10 0 59397  80862.000000  0    2541428.003  -6278306.522   1252397.153
10 0 59397  80982.000000  0    2292307.977  -6135152.396   2128614.120
10 0 59397  81102.000000  0    2006591.427  -5880047.192   2967345.250
10 0 59397  81222.000000  0    1691200.533  -5516873.334   3753823.463
10 0 59397  81342.000000  0    1353494.455  -5051540.848   4474211.395
10 0 59397  81462.000000  0    1001103.131  -4491884.276   5115847.263
10 0 59397  81582.000000  0     641758.639  -3847522.982   5667468.732
10 0 59397  81702.000000  0     283127.701  -3129685.206   6119408.256
10 0 59397  81822.000000  0     -67349.349  -2351003.689   6463755.957
10 0 59397  81942.000000  0    -402610.400  -1525288.498   6694491.115
10 0 59397  82062.000000  0    -716111.657   -667279.963   6807582.181
10 0 59397  82182.000000  0   -1001953.938    207616.041   6801053.916
10 0 59397  82302.000000  0   -1254993.046   1083605.137   6675019.666
10 0 59397  82422.000000  0   -1470931.938   1944789.028   6431679.154
10 0 59397  82542.000000  0   -1646393.900   2775453.448   6075282.659
10 0 59397  82662.000000  0   -1778975.758   3560355.604   5612061.050
10 0 59397  82782.000000  0   -1867279.591   4285006.021   5050122.676
10 0 59397  82902.000000  0   -1910923.418   4935941.468   4399318.297
10 0 59397  83022.000000  0   -1910529.827   5500982.726   3671072.952
10 0 59397  83142.000000  0   -1867692.812   5969471.394   2878187.979
10 0 59397  83262.000000  0   -1784924.018   6332479.728   2034615.683
10 0 59397  83382.000000  0   -1665578.321   6582989.744   1155210.733
10 0 59397  83502.000000  0   -1513760.068   6716035.591    255462.806
10 0 59397  83622.000000  0   -1334213.558   6728806.030   -648783.408
10 0 59397  83742.000000  0   -1132199.953   6620705.279  -1541617.121
10 0 59397  83862.000000  0    -913362.753   6393365.336  -2407352.765
10 0 59397  83982.000000  0    -683587.700   6050611.714  -3230811.618
10 0 59397  84102.000000  0    -448860.091   5598388.221  -3997589.727
10 0 59397  84222.000000  0    -215122.666   5044642.473  -4694309.618
10 0 59397  84342.000000  0      11862.436   4399173.942  -5308849.806
10 0 59397  84462.000000  0     226644.947   3673449.817  -5830548.892
10 0 59397  84582.000000  0     424207.685   2880391.758  -6250381.286
10 0 59397  84702.000000  0     600074.702   2034139.506  -6561101.650
10 0 59397  84822.000000  0     750405.393   1149797.609  -6757358.403
10 0 59397  84942.000000  0     872072.786    243167.889  -6835776.670
10 0 59397  85062.000000  0     962724.816   -669528.261  -6795010.034
10 0 59397  85182.000000  0    1020827.696  -1571933.993  -6635759.816
10 0 59397  85302.000000  0    1045691.150  -2447841.495  -6360763.161
10 0 59397  85422.000000  0    1037475.957  -3281475.572  -5974753.025
10 0 59397  85542.000000  0     997182.169  -4057775.647  -5484386.712
10 0 59397  85662.000000  0     926618.734  -4762667.788  -4898140.453
10 0 59397  85782.000000  0     828355.705  -5383322.636  -4226174.666
10 0 59397  85902.000000  0     705658.331  -5908396.696  -3480168.744
10 0 59397  86022.000000  0     562404.629  -6328249.838  -2673126.036
10 0 59397  86142.000000  0     402988.358  -6635134.505  -1819152.819
10 0 59397  86262.000000  0     232209.020  -6823352.144   -933212.780
10 0 59397  86382.000000  0      55151.153  -6889370.247    -30861.641
10 0 59398    102.000000  0    -122943.986  -6831897.199    872031.431
10 0 59398    222.000000  0    -296810.947  -6651913.602   1759570.331
10 0 59398    342.000000  0    -461293.713  -6352658.008   2616121.431
10 0 59398    462.000000  0    -611476.631  -5939565.907   3426598.989
10 0 59398    582.000000  0    -742808.646  -5420162.388   4176737.661
10 0 59398    702.000000  0    -851219.241  -4803916.575   4853346.483
10 0 59398    822.000000  0    -933222.061  -4102059.372   5444541.853
10 0 59398    942.000000  0    -986004.057  -3327369.415   5939955.487
10 0 59398   1062.000000  0   -1007498.603  -2493929.957   6330912.461
10 0 59398   1182.000000  0    -996440.242  -1616866.072   6610575.224
10 0 59398   1302.000000  0    -952401.154   -712067.781   6774057.213
10 0 59398   1422.000000  0    -875809.565    204099.685   6818503.935
10 0 59398   1542.000000  0    -767948.336   1115092.005   6743139.706
10 0 59398   1662.000000  0    -630933.052   2004484.221   6549280.543
10 0 59398   1782.000000  0    -467670.841   2856266.511   6240312.431
10 0 59398   1902.000000  0    -281800.811   3655132.727   5821635.958
10 0 59398   2022.000000  0     -77617.338   4386758.149   5300576.966
10 0 59398   2142.000000  0     140023.310   5038060.674   4686264.577
10 0 59398   2262.000000  0     365811.376   5597443.310   3989476.659
10 0 59398   2382.000000  0     594103.973   6055006.867   3222453.175
10 0 59398   2502.000000  0     819055.582   6402737.681   2398687.615
10 0 59398   2622.000000  0    1034757.761   6634660.572   1532683.311
10 0 59398   2742.000000  0    1235380.686   6746947.029    639692.705
10 0 59398   2862.000000  0    1415315.539   6737982.188   -264558.955
10 0 59398   2982.000000  0    1569313.346   6608387.112  -1164158.816
10 0 59398   3102.000000  0    1692616.122   6360996.395  -2043294.257
10 0 59398   3222.000000  0    1781077.897   6000792.541  -2886537.768
10 0 59398   3342.000000  0    1831272.365   5534798.060  -3679123.123
10 0 59398   3462.000000  0    1840584.694   4971927.847  -4407206.526
10 0 59398   3582.000000  0    1807285.203   4322806.185  -5058106.455
10 0 59398   3702.000000  0    1730583.355   3599555.250  -5620518.010
10 0 59398   3822.000000  0    1610661.956   2815560.560  -6084700.638
10 0 59398   3942.000000  0    1448689.913   1985216.976  -6442635.929
10 0 59398   4062.000000  0    1246814.873   1123663.010  -6688153.879
10 0 59398   4182.000000  0    1008136.167    246507.097  -6817029.674
10 0 59398   4302.000000  0     736657.268   -630451.060  -6827048.531
10 0 59398   4422.000000  0     437219.220  -1491499.110  -6718038.308
10 0 59398   4542.000000  0     115416.654  -2321285.245  -6491870.986
10 0 59398   4662.000000  0    -222503.141  -3105084.785  -6152436.012
10 0 59398   4782.000000  0    -569757.872  -3829058.881  -5705580.963
10 0 59398   4902.000000  0    -919161.047  -4480497.541  -5159020.400
10 0 59398   5022.000000  0   -1263265.274  -5048045.991  -4522214.828
10 0 59398   5142.000000  0   -1594516.109  -5521909.716  -3806218.101
10 0 59398   5262.000000  0   -1905412.996  -5894033.066  -3023494.728
10 0 59398   5382.000000  0   -2188673.792  -6158247.352  -2187709.724
10 0 59398   5502.000000  0   -2437399.493  -6310385.324  -1313493.485
10 0 59398   5622.000000  0   -2645235.016  -6348358.212   -416184.567
10 0 59398   5742.000000  0   -2806521.905  -6272191.336    488444.743
10 0 59398   5862.000000  0   -2916438.465  -6084016.723   1384473.228
10 0 59398   5982.000000  0   -2971123.751  -5788023.263   2256120.001
10 0 59398   6102.000000  0   -2967782.010  -5390364.768   3088031.540
10 0 59398   6222.000000  0   -2904764.615  -4899029.041   3865559.617
10 0 59398   6342.000000  0   -2781627.715  -4323671.696   4575024.377
99
